GSAT-10                 
1 38779U 12051B   26176.54144663 -.00000155  00000+0  00000+0 0  9998
2 38779   0.0613 259.5707 0008136 190.7455 101.3065  1.00272168 50187
INTELSAT 23 (IS-23)     
1 38867U 12057A   26176.51450705 -.00000275  00000+0  00000+0 0  9999
2 38867   0.0152  11.7546 0000120 150.4114 243.6979  1.00271894 50035
BEIDOU-2 G6             
1 38953U 12059A   26175.89491303 -.00000170  00000+0  00000+0 0  9990
2 38953   4.4417  73.4456 0009773 328.1958 277.6060  1.00271564 49985
LUCH-5B                 
1 38977U 12061A   26176.58075030 -.00000136  00000+0  00000+0 0  9993
2 38977  10.5022  49.8000 0002458 136.7840 279.9447  1.00272653 49691
YAMAL 300K              
1 38978U 12061B   26175.77697720  .00000080  00000+0  00000+0 0  9997
2 38978   0.0066 218.6511 0000788  56.9185 100.0107  1.00274288 49701
STAR ONE C3             
1 38991U 12062A   26176.51008703 -.00000239  00000+0  00000+0 0  9990
2 38991   0.0141  42.0875 0002542  61.1363 279.0622  1.00272407 49843
EUTELSAT 21B            
1 38992U 12062B   26176.30252863  .00000140  00000+0  00000+0 0  9996
2 38992   0.0649   2.0922 0002920  83.3304 318.5188  1.00271315 49907
ECHOSTAR 16             
1 39008U 12065A   26176.51277370 -.00000272  00000+0  00000+0 0  9998
2 39008   0.0182  13.4724 0002095  79.0784 304.1970  1.00271019 49722
ZHONGXING-12            
1 39017U 12067A   26176.39973572 -.00000196  00000+0  00000+0 0  9998
2 39017   0.0273 101.5008 0003123 343.6612  59.7667  1.00270756 49598
EUTELSAT 70B            
1 39020U 12069A   26176.53893329 -.00000033  00000+0  00000+0 0  9991
2 39020   0.0611 350.2933 0003507 104.4043  83.5101  1.00270253 49595
SKYNET 5D               
1 39034U 12075A   26176.53546661  .00000109  00000+0  00000+0 0  9990
2 39034   0.0685 343.3629 0004018 121.9004  53.9783  1.00275214 49246
MEXSAT 3                
1 39035U 12075B   26176.50220031 -.00000016  00000+0  00000+0 0  9996
2 39035   0.0185 320.4165 0001277 107.0265 272.1883  1.00275989  7138
TDRS 11                 
1 39070U 13004A   26176.55848106  .00000086  00000+0  00000+0 0  9998
2 39070   3.5328  31.3929 0005096  23.3524 245.5629  1.00272446 46771
AMAZONAS 3              
1 39078U 13006A   26176.58144471 -.00000272  00000+0  00000+0 0  9993
2 39078   0.0501 234.1012 0002540 257.9156 290.0032  1.00269460 44994
AZERSPACE 1             
1 39079U 13006B   26176.53407994  .00000143  00000+0  00000+0 0  9997
2 39079   0.0107 311.0718 0001881 171.5248  29.3377  1.00274418 48892
SBIRS GEO-2 (USA 241)   
1 39120U 13011A   26176.51511372 -.00000280  00000+0  00000+0 0  9997
2 39120   4.5069  52.5105 0002011  34.2805 322.5005  1.00271487 48611
EUTELSAT 117 WEST A     
1 39122U 13012A   26176.50185365 -.00000003  00000+0  00000+0 0  9991
2 39122   0.0322 297.7556 0002971 154.3245 245.4315  1.00270208 48512
ANIK G1                 
1 39127U 13014A   26176.50367366 -.00000064  00000+0  00000+0 0  9998
2 39127   0.0252 284.1735 0001895 166.3840 257.0930  1.00272526 48333
ZHONGXING-11            
1 39157U 13020A   26176.60367322 -.00000280  00000+0  00000+0 0  9991
2 39157   0.0197 310.5867 0002617 121.8860 156.5045  1.00272123 47988
EUTELSAT 7B             
1 39163U 13022A   26176.52638043  .00000058  00000+0  00000+0 0  9994
2 39163   0.0651   8.6348 0004385  33.3213  68.1903  1.00272445 48037
WGS F5 (USA 243)        
1 39168U 13024A   26176.51459372 -.00000274  00000+0  00000+0 0  9997
2 39168   0.0093 318.7694 0000389  92.6677 354.9578  1.00271620 47254
SES-6                   
1 39172U 13026A   26176.51693372 -.00000251  00000+0  00000+0 0  9999
2 39172   0.0165   7.0197 0002844  91.5550 320.6809  1.00271283 47804
IRNSS-1A                
1 39199U 13034A   26175.75184924  .00000048  00000+0  00000+0 0  9993
2 39199  35.7376  63.7613 0018365 178.4140 356.3236  1.00277314 47440
MUOS-2                  
1 39206U 13036A   26176.48475403 -.00000006  00000+0  00000+0 0  9995
2 39206   5.0112  45.5392 0051576 177.2767  37.3384  1.00274588 47273
ALPHASAT                
1 39215U 13038A   26176.31599627  .00000141  00000+0  00000+0 0  9993
2 39215   2.9986   1.2893 0002128  99.2056 311.6052  1.00271998 44107
INSAT-3D                
1 39216U 13038B   26176.58725306 -.00000330  00000+0  00000+0 0  9999
2 39216   1.9480  82.4454 0001123 359.6800 172.5285  1.00272381 47162
WGS F6 (USA 244)        
1 39222U 13041A   26176.51665183  .00000099  00000+0  00000+0 0  9990
2 39222   0.0175  13.0168 0000324  69.7918 241.6327  1.00269738 46147
ES'HAIL 1               
1 39233U 13044A   26176.22405644  .00000153  00000+0  00000+0 0  9998
2 39233   0.0482   9.9386 0002185  79.8036 289.7503  1.00273113 46709
GSAT-7                  
1 39234U 13044B   26176.53962662 -.00000066  00000+0  00000+0 0  9995
2 39234   0.1041  92.1220 0002650 188.9024 260.8671  1.00271758 45347
AMOS-4                  
1 39237U 13045A   26176.53789329  .00000000  00000+0  00000+0 0  9993
2 39237   0.0332  64.7943 0002277  13.7517  93.7654  1.00270802 47048
AEHF-3 (USA 246)        
1 39256U 13050A   26176.51840644  .00000034  00000+0  00000+0 0  9993
2 39256   5.3134  67.1082 0087999 188.0222  80.9261  1.00274669 45732
