OBJECT_NAME,OBJECT_ID,EPOCH,MEAN_MOTION,ECCENTRICITY,INCLINATION,RA_OF_ASC_NODE,ARG_OF_PERICENTER,MEAN_ANOMALY,EPHEMERIS_TYPE,CLASSIFICATION_TYPE,NORAD_CAT_ID,ELEMENT_SET_NO,REV_AT_EPOCH,BSTAR,MEAN_MOTION_DOT,MEAN_MOTION_DDOT
GSAT-10,2012-051B,2026-06-25T12:59:40.988832,1.00272168,.00081368,0.0613,259.5707,190.7455,101.3065,0,U,38779,999,5018,0,-.155E-5,0
INTELSAT 23 (IS-23),2012-057A,2026-06-25T12:20:53.409120,1.00271894,.00001202,0.0152,11.7546,150.4114,243.6979,0,U,38867,999,5003,0,-.275E-5,0
BEIDOU-2 G6,2012-059A,2026-06-24T21:28:40.485792,1.00271564,.0009773,4.4417,73.4456,328.1958,277.6060,0,U,38953,999,4998,0,-.17E-5,0
LUCH-5B,2012-061A,2026-06-25T13:56:16.825920,1.00272653,.00024589,10.5022,49.8000,136.7840,279.9447,0,U,38977,999,4969,0,-.136E-5,0
YAMAL 300K,2012-061B,2026-06-24T18:38:50.830080,1.00274288,.00007887,0.0066,218.6511,56.9185,100.0107,0,U,38978,999,4970,0,.8E-6,0
STAR ONE C3,2012-062A,2026-06-25T12:14:31.519392,1.00272407,.00025421,0.0141,42.0875,61.1363,279.0622,0,U,38991,999,4984,0,-.239E-5,0
EUTELSAT 21B,2012-062B,2026-06-25T07:15:38.473632,1.00271315,.00029209,0.0649,2.0922,83.3304,318.5188,0,U,38992,999,4990,0,.14E-5,0
ECHOSTAR 16,2012-065A,2026-06-25T12:18:23.647680,1.00271019,.00020951,0.0182,13.4724,79.0784,304.1970,0,U,39008,999,4972,0,-.272E-5,0
ZHONGXING-12,2012-067A,2026-06-25T09:35:37.166208,1.00270756,.00031234,0.0273,101.5008,343.6612,59.7667,0,U,39017,999,4959,0,-.196E-5,0
EUTELSAT 70B,2012-069A,2026-06-25T12:56:03.836256,1.00270253,.00035075,0.0611,350.2933,104.4043,83.5101,0,U,39020,999,4959,0,-.33E-6,0
SKYNET 5D,2012-075A,2026-06-25T12:51:04.315104,1.00275214,.00040189,0.0685,343.3629,121.9004,53.9783,0,U,39034,999,4924,0,.109E-5,0
MEXSAT 3,2012-075B,2026-06-25T12:03:10.106784,1.00275989,.00012775,0.0185,320.4165,107.0265,272.1883,0,U,39035,999,713,0,-.16E-6,0
TDRS 11,2013-004A,2026-06-25T13:24:12.763584,1.00272446,.00050969,3.5328,31.3929,23.3524,245.5629,0,U,39070,999,4677,0,.86E-6,0
AMAZONAS 3,2013-006A,2026-06-25T13:57:16.822944,1.00269460,.00025409,0.0501,234.1012,257.9156,290.0032,0,U,39078,999,4499,0,-.272E-5,0
AZERSPACE 1,2013-006B,2026-06-25T12:49:04.506816,1.00274418,.00018817,0.0107,311.0718,171.5248,29.3377,0,U,39079,999,4889,0,.143E-5,0
SBIRS GEO-2 (USA 241),2013-011A,2026-06-25T12:21:45.825408,1.00271487,.00020113,4.5069,52.5105,34.2805,322.5005,0,U,39120,999,4861,0,-.28E-5,0
EUTELSAT 117 WEST A,2013-012A,2026-06-25T12:02:40.155360,1.00270208,.00029713,0.0322,297.7556,154.3245,245.4315,0,U,39122,999,4851,0,-.3E-7,0
ANIK G1,2013-014A,2026-06-25T12:05:17.404224,1.00272526,.00018955,0.0252,284.1735,166.3840,257.0930,0,U,39127,999,4833,0,-.64E-6,0
ZHONGXING-11,2013-020A,2026-06-25T14:29:17.366208,1.00272123,.00026175,0.0197,310.5867,121.8860,156.5045,0,U,39157,999,4798,0,-.28E-5,0
EUTELSAT 7B,2013-022A,2026-06-25T12:37:59.269152,1.00272445,.00043855,0.0651,8.6348,33.3213,68.1903,0,U,39163,999,4803,0,.58E-6,0
WGS F5 (USA 243),2013-024A,2026-06-25T12:21:00.897408,1.00271620,.00003893,0.0093,318.7694,92.6677,354.9578,0,U,39168,999,4725,0,-.274E-5,0
SES-6,2013-026A,2026-06-25T12:24:23.073408,1.00271283,.00028444,0.0165,7.0197,91.5550,320.6809,0,U,39172,999,4780,0,-.251E-5,0
IRNSS-1A,2013-034A,2026-06-24T18:02:39.774336,1.00277314,.00183659,35.7376,63.7613,178.4140,356.3236,0,U,39199,999,4744,0,.48E-6,0
MUOS-2,2013-036A,2026-06-25T11:38:02.748192,1.00274588,.00515764,5.0112,45.5392,177.2767,37.3384,0,U,39206,999,4727,0,-.6E-7,0
ALPHASAT,2013-038A,2026-06-25T07:35:02.077728,1.00271998,.00021283,2.9986,1.2893,99.2056,311.6052,0,U,39215,999,4410,0,.141E-5,0
INSAT-3D,2013-038B,2026-06-25T14:05:38.664384,1.00272381,.00011237,1.9480,82.4454,359.6800,172.5285,0,U,39216,999,4716,0,-.33E-5,0
WGS F6 (USA 244),2013-041A,2026-06-25T12:23:58.718112,1.00269738,.00003248,0.0175,13.0168,69.7918,241.6327,0,U,39222,999,4614,0,.99E-6,0
ES'HAIL 1,2013-044A,2026-06-25T05:22:38.476416,1.00273113,.00021858,0.0482,9.9386,79.8036,289.7503,0,U,39233,999,4670,0,.153E-5,0
GSAT-7,2013-044B,2026-06-25T12:57:03.739968,1.00271758,.00026506,0.1041,92.1220,188.9024,260.8671,0,U,39234,999,4534,0,-.66E-6,0
AMOS-4,2013-045A,2026-06-25T12:54:33.980256,1.00270802,.00022777,0.0332,64.7943,13.7517,93.7654,0,U,39237,999,4704,0,0,0
AEHF-3 (USA 246),2013-050A,2026-06-25T12:26:30.316416,1.00274669,.00879992,5.3134,67.1082,188.0222,80.9261,0,U,39256,999,4573,0,.34E-6,0
